KUIPER-00053            
1 64513U 25134P   25342.20629807  .00002596  00000+0  36863-3 0  9994
2 64513  51.9016 267.6325 0001747  50.1911 309.9205 14.80023834 26661
KUIPER-00054            
1 64514U 25134Q   25342.81843499 -.00022929  00000+0 -29852-2 0  9990
2 64514  51.8975 259.9078 0005130  11.6517 348.4563 14.79972177 26822
KUIPER-00055            
1 64515U 25134R   25342.45611226  .00018829  00000+0  93490-3 0  9994
2 64515  51.8904 248.6064 0002831 158.7477 201.3620 15.17705341 26953
KUIPER-00056            
1 64516U 25134S   25342.20397294  .00006287  00000+0  85416-3 0  9998
2 64516  51.9032 268.6702 0002183  22.8166 337.2893 14.79872046 26656
KUIPER-00057            
1 64517U 25134T   25342.80375162  .00009548  00000+0  12790-2 0  9992
2 64517  51.8999 273.5094 0009523 338.4576  21.5984 14.79933135 26632
KUIPER-00058            
1 64518U 25134U   25342.20291917  .00009233  00000+0  12395-2 0  9994
2 64518  51.9000 270.0833 0004648  25.9811 334.1383 14.79896339 26633
KUIPER-00059            
1 64519U 25134V   25342.47828096  .00008301  00000+0  11155-2 0  9996
2 64519  51.9001 263.9199 0004225 151.2019 208.9177 14.79971463 26748
KUIPER-00060            
1 64520U 25134W   25342.20412567  .00008638  00000+0  11578-2 0  9993
2 64520  51.9019 266.1445 0003072  65.7046 294.4237 14.80035866 26675
